start=new Date('2023-05-30T00:00:00.000Z').valueOf();
sats=[{"CLASSIFICATION_TYPE":"U","CENTER_NAME":"EARTH","RA_OF_ASC_NODE":"164.8462","DECAY_DATE":null,"OBJECT_ID":"2022-005R","RCS_SIZE":"LARGE","MEAN_ELEMENT_THEORY":"SGP4","TIME_SYSTEM":"UTC","SITE":"AFETR","PERIOD":"95.438","REF_FRAME":"TEME","COUNTRY_CODE":"US","TLE_LINE1":"1 51119U 22005R   23149.86434746  .00000204  00000-0  30910-4 0  9990","MEAN_ANOMALY":"277.7994","PERIAPSIS":"539.031","ELEMENT_SET_NO":"999","NORAD_CAT_ID":"51119","BSTAR":"0.00003091000000","ECCENTRICITY":"0.00010500","ARG_OF_PERICENTER":"82.3118","SEMIMAJOR_AXIS":"6917.893","EPOCH":"2023-05-29T20:44:39.620544","MEAN_MOTION":"15.08835936","GP_ID":"232779885","OBJECT_NAME":"STARLINK-3390","TLE_LINE2":"2 51119  53.2156 164.8462 0001050  82.3118 277.7994 15.08835936 75679","MEAN_MOTION_DOT":"0.00000204","APOAPSIS":"540.484","MEAN_MOTION_DDOT":"0.0000000000000","REV_AT_EPOCH":"7567","EPHEMERIS_TYPE":"0","LAUNCH_DATE":"2022-01-19","FILE":"3920354","OBJECT_TYPE":"PAYLOAD","INCLINATION":"53.2156"},{"BSTAR":"0.00006185300000","ECCENTRICITY":"0.00009430","MEAN_MOTION":"15.08841341","GP_ID":"232748258","EPOCH":"2023-05-29T07:50:58.290720","SEMIMAJOR_AXIS":"6917.876","ARG_OF_PERICENTER":"84.6265","REV_AT_EPOCH":"7559","APOAPSIS":"540.394","MEAN_MOTION_DDOT":"0.0000000000000","TLE_LINE2":"2 51120  53.2154 167.2559 0000943  84.6265 275.4835 15.08841341 75598","MEAN_MOTION_DOT":"0.00000697","OBJECT_NAME":"STARLINK-3398","INCLINATION":"53.2154","OBJECT_TYPE":"PAYLOAD","FILE":"3920065","EPHEMERIS_TYPE":"0","LAUNCH_DATE":"2022-01-19","DECAY_DATE":null,"OBJECT_ID":"2022-005S","RA_OF_ASC_NODE":"167.2559","CLASSIFICATION_TYPE":"U","CENTER_NAME":"EARTH","PERIOD":"95.437","REF_FRAME":"TEME","MEAN_ELEMENT_THEORY":"SGP4","TIME_SYSTEM":"UTC","SITE":"AFETR","RCS_SIZE":"LARGE","TLE_LINE1":"1 51120U 22005S   23149.32706355  .00000697  00000-0  61853-4 0  9997","COUNTRY_CODE":"US","NORAD_CAT_ID":"51120","ELEMENT_SET_NO":"999","PERIAPSIS":"539.089","MEAN_ANOMALY":"275.4835"},{"INCLINATION":"53.2152","OBJECT_TYPE":"PAYLOAD","EPHEMERIS_TYPE":"0","LAUNCH_DATE":"2022-01-19","FILE":"3920354","TLE_LINE2":"2 51121  53.2152 165.4162 0000648  66.4464 293.6596 15.08838143 75657","MEAN_MOTION_DOT":"0.00000561","APOAPSIS":"540.199","MEAN_MOTION_DDOT":"0.0000000000000","REV_AT_EPOCH":"7565","OBJECT_NAME":"STARLINK-3399","MEAN_MOTION":"15.08838143","GP_ID":"232780887","SEMIMAJOR_AXIS":"6917.886","ARG_OF_PERICENTER":"66.4464","EPOCH":"2023-05-29T17:45:51.956352","BSTAR":"0.00005328700000","ECCENTRICITY":"0.00006480","ELEMENT_SET_NO":"999","NORAD_CAT_ID":"51121","MEAN_ANOMALY":"293.6596","PERIAPSIS":"539.303","COUNTRY_CODE":"US","TLE_LINE1":"1 51121U 22005T   23149.74018468  .00000561  00000-0  53287-4 0  9997","MEAN_ELEMENT_THEORY":"SGP4","TIME_SYSTEM":"UTC","SITE":"AFETR","PERIOD":"95.438","REF_FRAME":"TEME","RCS_SIZE":"LARGE","DECAY_DATE":null,"OBJECT_ID":"2022-005T","CLASSIFICATION_TYPE":"U","CENTER_NAME":"EARTH","RA_OF_ASC_NODE":"165.4162"},{"PERIAPSIS":"539.295","MEAN_ANOMALY":"260.9470","NORAD_CAT_ID":"51122","ELEMENT_SET_NO":"999","TLE_LINE1":"1 51122U 22005U   23149.46417730 -.00000347  00000-0 -37503-5 0  9990","COUNTRY_CODE":"US","RCS_SIZE":"LARGE","PERIOD":"95.437","REF_FRAME":"TEME","TIME_SYSTEM":"UTC","MEAN_ELEMENT_THEORY":"SGP4","SITE":"AFETR","RA_OF_ASC_NODE":"166.6505","CENTER_NAME":"EARTH","CLASSIFICATION_TYPE":"U","DECAY_DATE":null,"OBJECT_ID":"2022-005U","FILE":"3920238","EPHEMERIS_TYPE":"0","LAUNCH_DATE":"2022-01-19","INCLINATION":"53.2156","OBJECT_TYPE":"PAYLOAD","OBJECT_NAME":"STARLINK-3373","MEAN_MOTION_DDOT":"0.0000000000000","APOAPSIS":"540.126","REV_AT_EPOCH":"7672","TLE_LINE2":"2 51122  53.2156 166.6505 0000601  99.1590 260.9470 15.08851437 76726","MEAN_MOTION_DOT":"-0.00000347","EPOCH":"2023-05-29T11:08:24.918720","ARG_OF_PERICENTER":"99.1590","SEMIMAJOR_AXIS":"6917.845","MEAN_MOTION":"15.08851437","GP_ID":"232755125","BSTAR":"-0.00000375030000","ECCENTRICITY":"0.00006010"},{"OBJECT_TYPE":"PAYLOAD","INCLINATION":"53.2156","FILE":"3920065","EPHEMERIS_TYPE":"0","LAUNCH_DATE":"2022-01-19","APOAPSIS":"540.398","REV_AT_EPOCH":"7561","MEAN_MOTION_DDOT":"0.0000000000000","TLE_LINE2":"2 51123  53.2156 166.6784 0000957  82.2934 277.8167 15.08843237 75611","MEAN_MOTION_DOT":"0.00000208","OBJECT_NAME":"STARLINK-3392","MEAN_MOTION":"15.08843237","GP_ID":"232747006","EPOCH":"2023-05-29T10:56:26.438784","ARG_OF_PERICENTER":"82.2934","SEMIMAJOR_AXIS":"6917.870","BSTAR":"0.00003114800000","ECCENTRICITY":"0.00009570","NORAD_CAT_ID":"51123","ELEMENT_SET_NO":"999","PERIAPSIS":"539.073","MEAN_ANOMALY":"277.8167","TLE_LINE1":"1 51123U 22005V   23149.45586156  .00000208  00000-0  31148-4 0  9991","COUNTRY_CODE":"US","PERIOD":"95.437","REF_FRAME":"TEME","MEAN_ELEMENT_THEORY":"SGP4","TIME_SYSTEM":"UTC","SITE":"AFETR","RCS_SIZE":"LARGE","DECAY_DATE":null,"OBJECT_ID":"2022-005V","RA_OF_ASC_NODE":"166.6784","CENTER_NAME":"EARTH","CLASSIFICATION_TYPE":"U"},{"MEAN_ANOMALY":"272.5076","PERIAPSIS":"539.062","ELEMENT_SET_NO":"999","NORAD_CAT_ID":"51124","TLE_LINE1":"1 51124U 22005W   23149.76406675  .00000266  00000-0  34767-4 0  9997","COUNTRY_CODE":"US","RCS_SIZE":"LARGE","TIME_SYSTEM":"UTC","MEAN_ELEMENT_THEORY":"SGP4","SITE":"AFETR","PERIOD":"95.438","REF_FRAME":"TEME","CLASSIFICATION_TYPE":"U","CENTER_NAME":"EARTH","RA_OF_ASC_NODE":"175.2973","DECAY_DATE":null,"OBJECT_ID":"2022-005W","EPHEMERIS_TYPE":"0","LAUNCH_DATE":"2022-01-19","FILE":"3920354","OBJECT_TYPE":"PAYLOAD","INCLINATION":"53.2156","OBJECT_NAME":"STARLINK-3389","TLE_LINE2":"2 51124  53.2156 175.2973 0001002  87.6030 272.5076 15.08836786 75528","MEAN_MOTION_DOT":"0.00000266","APOAPSIS":"540.448","MEAN_MOTION_DDOT":"0.0000000000000","REV_AT_EPOCH":"7552","ARG_OF_PERICENTER":"87.6030","SEMIMAJOR_AXIS":"6917.890","EPOCH":"2023-05-29T18:20:15.367200","MEAN_MOTION":"15.08836786","GP_ID":"232780136","ECCENTRICITY":"0.00010020","BSTAR":"0.00003476700000"},{"INCLINATION":"53.2155","OBJECT_TYPE":"PAYLOAD","FILE":"3920065","EPHEMERIS_TYPE":"0","LAUNCH_DATE":"2022-01-19","REV_AT_EPOCH":"7544","APOAPSIS":"540.442","MEAN_MOTION_DDOT":"0.0000000000000","TLE_LINE2":"2 51125  53.2155 177.1353 0000999  78.8975 281.2129 15.08838304 75440","MEAN_MOTION_DOT":"0.00000796","OBJECT_NAME":"STARLINK-3387","MEAN_MOTION":"15.08838304","GP_ID":"232748007","EPOCH":"2023-05-29T08:33:25.400736","SEMIMAJOR_AXIS":"6917.886","ARG_OF_PERICENTER":"78.8975","ECCENTRICITY":"0.00009990","BSTAR":"0.00006806800000","NORAD_CAT_ID":"51125","ELEMENT_SET_NO":"999","PERIAPSIS":"539.059","MEAN_ANOMALY":"281.2129","COUNTRY_CODE":"US","TLE_LINE1":"1 51125U 22005X   23149.35654399  .00000796  00000-0  68068-4 0  9990","PERIOD":"95.438","REF_FRAME":"TEME","TIME_SYSTEM":"UTC","MEAN_ELEMENT_THEORY":"SGP4","SITE":"AFETR","RCS_SIZE":"LARGE","DECAY_DATE":null,"OBJECT_ID":"2022-005X","RA_OF_ASC_NODE":"177.1353","CLASSIFICATION_TYPE":"U","CENTER_NAME":"EARTH"},{"INCLINATION":"53.2159","OBJECT_TYPE":"PAYLOAD","FILE":"3920354","EPHEMERIS_TYPE":"0","LAUNCH_DATE":"2022-01-19","REV_AT_EPOCH":"7552","APOAPSIS":"540.543","MEAN_MOTION_DDOT":"0.0000000000000","TLE_LINE2":"2 51126  53.2159 175.3200 0001141  81.0610 279.0511 15.08837136 75529","MEAN_MOTION_DOT":"0.00000006","OBJECT_NAME":"STARLINK-3386","MEAN_MOTION":"15.08837136","GP_ID":"232781626","EPOCH":"2023-05-29T18:16:20.223552","SEMIMAJOR_AXIS":"6917.889","ARG_OF_PERICENTER":"81.0610","ECCENTRICITY":"0.00011410","BSTAR":"0.00001845600000","NORAD_CAT_ID":"51126","ELEMENT_SET_NO":"999","PERIAPSIS":"538.965","MEAN_ANOMALY":"279.0511","TLE_LINE1":"1 51126U 22005Y   23149.76134518  .00000006  00000-0  18456-4 0  9992","COUNTRY_CODE":"US","PERIOD":"95.438","REF_FRAME":"TEME","TIME_SYSTEM":"UTC","MEAN_ELEMENT_THEORY":"SGP4","SITE":"AFETR","RCS_SIZE":"LARGE","DECAY_DATE":null,"OBJECT_ID":"2022-005Y","RA_OF_ASC_NODE":"175.3200","CLASSIFICATION_TYPE":"U","CENTER_NAME":"EARTH"},{"DECAY_DATE":null,"OBJECT_ID":"2022-005Z","CLASSIFICATION_TYPE":"U","CENTER_NAME":"EARTH","RA_OF_ASC_NODE":"177.1199","MEAN_ELEMENT_THEORY":"SGP4","TIME_SYSTEM":"UTC","SITE":"AFETR","PERIOD":"95.438","REF_FRAME":"TEME","RCS_SIZE":"LARGE","TLE_LINE1":"1 51127U 22005Z   23149.36022247  .00000187  00000-0  29813-4 0  9993","COUNTRY_CODE":"US","ELEMENT_SET_NO":"999","NORAD_CAT_ID":"51127","MEAN_ANOMALY":"272.6197","PERIAPSIS":"538.936","BSTAR":"0.00002981300000","ECCENTRICITY":"0.00011710","MEAN_MOTION":"15.08839751","GP_ID":"232747507","SEMIMAJOR_AXIS":"6917.881","ARG_OF_PERICENTER":"87.4930","EPOCH":"2023-05-29T08:38:43.221408","TLE_LINE2":"2 51127  53.2157 177.1199 0001171  87.4930 272.6197 15.08839751 75459","MEAN_MOTION_DOT":"0.00000187","APOAPSIS":"540.556","REV_AT_EPOCH":"7545","MEAN_MOTION_DDOT":"0.0000000000000","OBJECT_NAME":"STARLINK-3370","INCLINATION":"53.2157","OBJECT_TYPE":"PAYLOAD","EPHEMERIS_TYPE":"0","LAUNCH_DATE":"2022-01-19","FILE":"3920065"},{"RCS_SIZE":"LARGE","PERIOD":"95.437","REF_FRAME":"TEME","TIME_SYSTEM":"UTC","MEAN_ELEMENT_THEORY":"SGP4","SITE":"AFETR","RA_OF_ASC_NODE":"174.8174","CLASSIFICATION_TYPE":"U","CENTER_NAME":"EARTH","DECAY_DATE":null,"OBJECT_ID":"2022-005AA","PERIAPSIS":"538.936","MEAN_ANOMALY":"286.3070","NORAD_CAT_ID":"51128","ELEMENT_SET_NO":"999","TLE_LINE1":"1 51128U 22005AA  23149.87078695 -.00000428  00000-0 -88121-5 0  9996","COUNTRY_CODE":"US","EPOCH":"2023-05-29T20:53:55.992480","SEMIMAJOR_AXIS":"6917.875","ARG_OF_PERICENTER":"73.8051","MEAN_MOTION":"15.08841713","GP_ID":"232780636","ECCENTRICITY":"0.00011630","BSTAR":"-0.00000881210000","FILE":"3920354","EPHEMERIS_TYPE":"0","LAUNCH_DATE":"2022-01-19","OBJECT_TYPE":"PAYLOAD","INCLINATION":"53.2156","OBJECT_NAME":"STARLINK-3400","REV_AT_EPOCH":"7552","APOAPSIS":"540.545","MEAN_MOTION_DDOT":"0.0000000000000","TLE_LINE2":"2 51128  53.2156 174.8174 0001163  73.8051 286.3070 15.08841713 75521","MEAN_MOTION_DOT":"-0.00000428"}];
